COSMOS 2534 [GLONASS-M] 
1 44299U 19030A   26192.41577368  .00000109  00000+0  00000+0 0  9990
2 44299  64.3707 191.8005 0013505 274.9537  91.5503  2.13102087 55447
BEIDOU-3 IGSO-2         
1 44337U 19035A   26192.30343497 -.00000100  00000+0  00000+0 0  9992
2 44337  55.2507 158.6517 0039613 216.3750 142.1572  1.00258756 25908
NAVSTAR 78 (USA 293)    
1 44506U 19056A   26192.52819734 -.00000086  00000+0  00000+0 0  9992
2 44506  55.6240 330.1760 0063283 198.1141 125.2302  2.00569837 50550
BEIDOU-3 M24            
1 44542U 19061A   26191.33146884  .00000110  00000+0  00000+0 0  9992
2 44542  54.3976 181.9474 0008584 359.5842   0.4221  1.86229274 46224
BEIDOU-3 M23            
1 44543U 19061B   26189.43788944  .00000122  00000+0  00000+0 0  9993
2 44543  54.3960 181.9796 0005860 339.6838 102.2392  1.86227401 46199
EUTELSAT 5 WEST B       
1 44624U 19067A   26192.36225226 -.00000036  00000+0  00000+0 0  9999
2 44624   0.0627 349.9166 0002994 122.4134 302.3458  1.00271353 24672
BEIDOU-3 M22            
1 44793U 19078A   26192.24557380 -.00000063  00000+0  00000+0 0  9994
2 44793  53.9127 298.9816 0005778  49.8737 310.1999  1.86227392 45094
BEIDOU-3 M21            
1 44794U 19078B   26189.16367219 -.00000063  00000+0  00000+0 0  9992
2 44794  53.8889 299.0507 0003790  48.5315 311.5256  1.86228045 45040
COSMOS 2544 [GLONASS-M] 
1 44850U 19088A   26191.49239920 -.00000023  00000+0  00000+0 0  9998
2 44850  65.5775  72.9536 0012328 255.3025 104.6227  2.13103014 51214
BEIDOU-3 M19            
1 44864U 19090A   26190.26823391 -.00000047  00000+0  00000+0 0  9997
2 44864  56.5775  62.0617 0016982 297.5653 280.5359  1.86231621 44648
BEIDOU-3 M20            
1 44865U 19090B   26192.22883229 -.00000044  00000+0  00000+0 0  9999
2 44865  56.5806  62.0316 0014749 312.6132 229.5496  1.86231401 44663
BEIDOU-3 G2             
1 45344U 20017A   26192.50951317 -.00000137  00000+0  00000+0 0  9991
2 45344   2.9105  47.6667 0002076  58.7433  86.4818  1.00269581 23507
COSMOS 2545 [GLONASS-M] 
1 45358U 20018A   26188.87178822 -.00000052  00000+0  00000+0 0  9990
2 45358  64.3418 311.6924 0009213 230.0449 129.8870  2.13102711 49103
BEIDOU-3 G3             
1 45807U 20040A   26192.51549265 -.00000350  00000+0  00000+0 0  9994
2 45807   2.5033  67.4765 0001789 328.0027 189.9856  1.00265805 22312
GALAXY 30 (G-30)        
1 46114U 20056C   26192.46919784  .00000000  00000+0  00000+0 0  9995
2 46114   0.0294  43.0423 0001931  72.4465 217.7972  1.00270594 21535
COSMOS 2547 [GLONASS-K] 
1 46805U 20075A   26192.34632256  .00000110  00000+0  00000+0 0  9998
2 46805  64.6014 191.6691 0009439 239.8003 120.1351  2.13100073 44423
QZS-1R (MICHIBIKI-1R)   
1 49336U 21096A   26191.59113987 -.00000288  00000+0  00000+0 0  9992
2 49336  37.5070  79.2376 0754836 272.1561 282.0570  1.00246773 17248
GSAT0223 (GALILEO 27)   
1 49809U 21116A   26190.87460481 -.00000078  00000+0  00000+0 0  9991
2 49809  57.1531 341.0636 0002356 194.9735 168.6501  1.70475927 28572
GSAT0224 (GALILEO 28)   
1 49810U 21116B   26191.27355816 -.00000080  00000+0  00000+0 0  9996
2 49810  57.1533 341.0513 0001790 180.2049 180.8962  1.70475962 28607
COSMOS 2557 [GLONASS-K] 
1 52984U 22075A   26188.28712428 -.00000050  00000+0  00000+0 0  9997
2 52984  64.2858 313.7776 0010602 272.5991  87.2916  2.13102499 31144
COSMOS 2559 [GLONASS-K] 
1 54031U 22130A   26192.33014745 -.00000064  00000+0  00000+0 0  9997
2 54031  64.2555 313.7175 0013028 180.6057 179.3980  2.13101622 29208
COSMOS 2564 [GLONASS-M] 
1 54377U 22161A   26192.17331457  .00000113  00000+0  00000+0 0  9992
2 54377  64.7436 191.9154 0012251 225.0462 134.8846  2.13101968 28140
BEIDOU-3 G4             
1 56564U 23066A   26192.48311497 -.00000274  00000+0  00000+0 0  9992
2 56564   0.4634 337.7815 0004866 188.0329  77.5375  1.00273784 11631
NVS-01 (IRNSS-1J)       
1 56759U 23076A   26192.51930600 -.00000329  00000+0  00000+0 0  9997
2 56759   2.1109 243.2586 0003511   7.3794 355.2354  1.00266386 11367
COSMOS 2569 [GLONASS-K2]
1 57517U 23114A   26192.18560793 -.00000021  00000+0  00000+0 0  9997
2 57517  65.3157  71.8115 0009810 296.2031  63.7608  2.13103691 22772
BEIDOU-3 M28            
1 58654U 23207A   26191.92546505 -.00000047  00000+0  00000+0 0  9997
2 58654  55.7737  61.5024 0002543   2.6730 357.3924  1.86229630 17282
BEIDOU-3 M26            
1 58655U 23207B   26191.72295870 -.00000047  00000+0  00000+0 0  9992
2 58655  55.7759  61.4958 0002139 324.4555  35.5938  1.86229637 17268
