OBJECT_NAME,OBJECT_ID,EPOCH,MEAN_MOTION,ECCENTRICITY,INCLINATION,RA_OF_ASC_NODE,ARG_OF_PERICENTER,MEAN_ANOMALY,EPHEMERIS_TYPE,CLASSIFICATION_TYPE,NORAD_CAT_ID,ELEMENT_SET_NO,REV_AT_EPOCH,BSTAR,MEAN_MOTION_DOT,MEAN_MOTION_DDOT
COSMOS 2534 (758),2019-030A,2026-07-11T09:58:42.845952,2.13102087,.0013505,64.3707,191.8005,274.9537,91.5503,0,U,44299,999,5544,0,.109E-5,0
BEIDOU-3 IGSO-2 (C39),2019-035A,2026-07-11T07:16:56.781408,1.00258756,.0039613,55.2507,158.6517,216.3750,142.1572,0,U,44337,999,2590,0,-.1E-5,0
GPS BIII-2  (PRN 18),2019-056A,2026-07-11T12:40:36.250176,2.00569837,.0063283,55.6240,330.1760,198.1141,125.2302,0,U,44506,999,5055,0,-.86E-6,0
BEIDOU-3 M24 (C46),2019-061A,2026-07-10T07:57:18.907776,1.86229274,.00085848,54.3976,181.9474,359.5842,0.4221,0,U,44542,999,4622,0,.11E-5,0
BEIDOU-3 M23 (C45),2019-061B,2026-07-08T10:30:33.647616,1.86227401,.00058609,54.3960,181.9796,339.6838,102.2392,0,U,44543,999,4619,0,.122E-5,0
EUTELSAT 5 WEST B (EGNOS/PRN 121),2019-067A,2026-07-11T08:41:38.595264,1.00271353,.0002994,0.0627,349.9166,122.4134,302.3458,0,U,44624,999,2467,0,-.36E-6,0
BEIDOU-3 M22 (C44),2019-078A,2026-07-11T05:53:37.576320,1.86227392,.0005778,53.9127,298.9816,49.8737,310.1999,0,U,44793,999,4509,0,-.63E-6,0
BEIDOU-3 M21 (C43),2019-078B,2026-07-08T03:55:41.277216,1.86228045,.00037906,53.8889,299.0507,48.5315,311.5256,0,U,44794,999,4504,0,-.63E-6,0
COSMOS 2544 (759),2019-088A,2026-07-10T11:49:03.290880,2.13103014,.0012328,65.5775,72.9536,255.3025,104.6227,0,U,44850,999,5121,0,-.23E-6,0
BEIDOU-3 M19 (C41),2019-090A,2026-07-09T06:26:15.409824,1.86231621,.0016982,56.5775,62.0617,297.5653,280.5359,0,U,44864,999,4464,0,-.47E-6,0
BEIDOU-3 M20 (C42),2019-090B,2026-07-11T05:29:31.109856,1.86231401,.0014749,56.5806,62.0316,312.6132,229.5496,0,U,44865,999,4466,0,-.44E-6,0
BEIDOU-3 G2 (C60),2020-017A,2026-07-11T12:13:41.937888,1.00269581,.0002076,2.9105,47.6667,58.7433,86.4818,0,U,45344,999,2350,0,-.137E-5,0
COSMOS 2545 (760),2020-018A,2026-07-07T20:55:22.502208,2.13102711,.00092133,64.3418,311.6924,230.0449,129.8870,0,U,45358,999,4910,0,-.52E-6,0
BEIDOU-3 G3 (C61),2020-040A,2026-07-11T12:22:18.564960,1.00265805,.0001789,2.5033,67.4765,328.0027,189.9856,0,U,45807,999,2231,0,-.35E-5,0
GALAXY 30 (WAAS/PRN 135),2020-056C,2026-07-11T11:15:38.693376,1.00270594,.0001931,0.0294,43.0423,72.4465,217.7972,0,U,46114,999,2153,0,0,0
COSMOS 2547 (705K),2020-075A,2026-07-11T08:18:42.269184,2.13100073,.0009439,64.6014,191.6691,239.8003,120.1351,0,U,46805,999,4442,0,.11E-5,0
QZS-1R (QZSS/PRN 196),2021-096A,2026-07-10T14:11:14.484768,1.00246773,.0754836,37.5070,79.2376,272.1561,282.0570,0,U,49336,999,1724,0,-.288E-5,0
GSAT0223 (GALILEO 27),2021-116A,2026-07-09T20:59:25.855584,1.70475927,.0002356,57.1531,341.0636,194.9735,168.6501,0,U,49809,999,2857,0,-.78E-6,0
GSAT0224 (GALILEO 28),2021-116B,2026-07-10T06:33:55.425024,1.70475962,.000179,57.1533,341.0513,180.2049,180.8962,0,U,49810,999,2860,0,-.8E-6,0
COSMOS 2557 (706K),2022-075A,2026-07-07T06:53:27.537792,2.13102499,.0010602,64.2858,313.7776,272.5991,87.2916,0,U,52984,999,3114,0,-.5E-6,0
COSMOS 2559 (707K),2022-130A,2026-07-11T07:55:24.739680,2.13101622,.0013028,64.2555,313.7175,180.6057,179.3980,0,U,54031,999,2920,0,-.64E-6,0
COSMOS 2564 (761),2022-161A,2026-07-11T04:09:34.378848,2.13101968,.0012251,64.7436,191.9154,225.0462,134.8846,0,U,54377,999,2814,0,.113E-5,0
BEIDOU-3 G4 (C62),2023-066A,2026-07-11T11:35:41.133408,1.00273784,.0004866,0.4634,337.7815,188.0329,77.5375,0,U,56564,999,1163,0,-.274E-5,0
NVS-01 (IRNSS-1J),2023-076A,2026-07-11T12:27:48.038400,1.00266386,.0003511,2.1109,243.2586,7.3794,355.2354,0,U,56759,999,1136,0,-.329E-5,0
COSMOS 2569 (703K),2023-114A,2026-07-11T04:27:16.525152,2.13103691,.000981,65.3157,71.8115,296.2031,63.7608,0,U,57517,999,2277,0,-.21E-6,0
BEIDOU-3 M28 (C50),2023-207A,2026-07-10T22:12:40.180320,1.86229630,.0002543,55.7737,61.5024,2.6730,357.3924,0,U,58654,999,1728,0,-.47E-6,0
BEIDOU-3 M26 (C48),2023-207B,2026-07-10T17:21:03.631680,1.86229637,.0002139,55.7759,61.4958,324.4555,35.5938,0,U,58655,999,1726,0,-.47E-6,0
